OBJECT_NAME,OBJECT_ID,EPOCH,MEAN_MOTION,ECCENTRICITY,INCLINATION,RA_OF_ASC_NODE,ARG_OF_PERICENTER,MEAN_ANOMALY,EPHEMERIS_TYPE,CLASSIFICATION_TYPE,NORAD_CAT_ID,ELEMENT_SET_NO,REV_AT_EPOCH,BSTAR,MEAN_MOTION_DOT,MEAN_MOTION_DDOT
FLOCK 4BE-27,2024-149AX,2026-06-18T11:58:08.107680,15.34463889,.0002413,97.3824,251.3504,308.9007,51.2020,0,U,60513,999,10234,.21925E-3,.7239E-4,0
FLOCK 4BE-9,2024-149AY,2026-06-18T04:39:34.191936,15.40819833,.00013903,97.3795,253.4753,288.0699,72.0396,0,U,60514,999,10247,.2949026E-3,.12007E-3,0
FLOCK 4BE-6,2024-149BA,2026-06-18T16:17:17.297952,15.39609284,.0002058,97.3789,253.3206,285.0789,75.0229,0,U,60516,999,10250,.29237E-3,.11437E-3,0
FLOCK 4BE-14,2024-149BB,2026-06-18T12:44:53.062080,15.41026820,.0003001,97.3696,253.3089,283.5642,76.5270,0,U,60517,999,10253,.31675E-3,.12995E-3,0
FLOCK 4BE-1,2024-149BC,2026-06-18T16:12:36.789120,15.42640855,.0002888,97.3781,254.7374,281.7879,78.3044,0,U,60518,999,10260,.32075E-3,.13889E-3,0
FLOCK 4BE-28,2024-149BD,2026-06-18T16:29:52.732896,15.44953810,.0002983,97.3748,255.4781,274.3800,85.7107,0,U,60519,999,10267,.3016E-3,.14116E-3,0
IPERDRONE.0,2024-149BE,2026-06-18T12:28:46.900992,15.66818626,.0003714,97.3775,262.7979,221.0422,139.0559,0,U,60520,999,10312,.59933E-3,.63448E-3,0
TRANSPORTER-11 OBJECT BF,2024-149BF,2026-06-18T12:26:04.788672,15.85310455,.0006399,97.3765,265.5609,232.5601,127.5088,0,U,60521,999,10329,.87248E-3,.211259E-2,0
CONNECTA IOT-2,2024-149BG,2026-06-18T16:33:57.631104,15.23985376,.0005402,97.3838,247.8132,331.6809,28.4134,0,U,60522,999,10212,.15347E-3,.3645E-4,0
CONNECTA IOT-4,2024-149BJ,2026-06-18T04:20:04.272864,15.42168882,.00040236,97.3798,253.5627,280.2720,79.8073,0,U,60524,999,10248,.34156147E-3,.14567E-3,0
ORESAT0.5,2024-149BK,2026-06-18T09:55:23.956608,15.45117432,.0004143,97.3718,255.4327,267.4016,92.6759,0,U,60525,999,10266,.33048E-3,.15568E-3,0
DEIMOS,2024-149BL,2026-06-18T12:16:04.330272,15.44261676,.000402,97.3780,255.6712,275.0101,85.0688,0,U,60526,999,10265,.32604E-3,.14916E-3,0
CUAVA-2,2024-149BM,2026-06-18T04:34:23.526048,15.36135386,.00051758,97.3725,250.7114,290.4481,69.6207,0,U,60527,999,10232,.2640842E-3,.922E-4,0
ERNST,2024-149BN,2026-06-18T11:16:47.346816,15.39236277,.0004397,97.3809,253.1993,292.0152,68.0626,0,U,60528,999,10247,.26475E-3,.10223E-3,0
TORO,2024-149BQ,2026-06-18T04:13:18.712128,14.96429459,.0001463,97.6791,243.8253,80.7894,279.3493,0,U,60530,999,10010,.11694E-3,.1269E-4,0
HYPSO-2,2024-149BR,2026-06-18T16:04:02.426592,14.98793581,.0000253,97.6807,245.9089,48.1285,311.9959,0,U,60531,999,10027,.15665E-3,.1829E-4,0
LEMU NGE,2024-149BS,2026-06-18T15:47:04.910208,14.94958942,.0001975,97.6844,244.5876,61.6821,298.4599,0,U,60532,999,10017,.12438E-3,.1302E-4,0
LEMUR-2-STELLA,2024-149BT,2026-06-18T12:54:33.511104,15.11833501,.0001608,97.6734,251.9987,96.2198,263.9215,0,U,60533,999,10070,.48796E-3,.8277E-4,0
SATELIOT_2,2024-149BU,2026-06-18T15:08:56.130144,14.96368674,.0002153,97.6834,244.5608,92.6028,267.5440,0,U,60534,999,10018,.17401E-3,.1913E-4,0
NIGHTJAR,2024-149BV,2026-06-18T11:03:03.026016,14.99022041,.0001093,97.6839,246.1501,79.7407,280.3939,0,U,60535,999,14306,.15592E-3,.1832E-4,0
LEMUR-2-MARHISYAM,2024-149BW,2026-06-18T15:37:36.545952,15.11284968,.0003241,97.6878,252.5628,115.9621,244.1943,0,U,60536,999,10070,.53477E-3,.8941E-4,0
SATELIOT_4,2024-149BX,2026-06-18T15:24:05.605056,14.96675205,.0003132,97.6743,244.0980,56.1568,303.9951,0,U,60537,999,10019,.10513E-3,.1142E-4,0
PICO-02A021,2024-149BY,2026-06-18T03:57:26.622144,15.03262350,.00048586,97.6753,247.9873,25.2654,334.8808,0,U,60538,999,9988,.35711518E-3,.4779E-4,0
ICEYE-X43,2024-149BZ,2026-06-18T16:43:23.373120,14.99626114,.0008277,97.6789,246.6404,80.4801,279.7357,0,U,60539,999,10034,.26385E-3,.3192E-4,0
HAWK-10A,2024-149CA,2026-06-18T04:08:30.181920,14.96520885,.0004981,97.6898,245.0669,75.8442,284.3332,0,U,60540,999,10013,.13430614E-3,.1469E-4,0
UMBRA-09,2024-149CB,2026-06-18T15:35:10.015008,15.18073312,.0000657,97.6967,256.8799,257.0365,103.0794,0,U,60541,999,10094,.54033E-3,.10947E-3,0
QPS-SAR-8 (AMATERU-IV),2024-149CC,2026-06-18T10:58:59.900736,15.04140943,.0004649,97.6654,248.5973,105.8116,254.3623,0,U,60542,999,10046,.24372E-3,.3319E-4,0
ARCTIC WEATHER SATELLITE,2024-149CD,2026-06-18T15:09:04.556736,14.89784407,.0003595,97.6805,240.0556,100.2487,259.9137,0,U,60543,999,9951,.68532E-4,.604E-5,0
CAPELLA-15 (ACADIA-5),2024-149CE,2026-06-18T11:05:47.148864,14.92412089,.0004763,97.6770,242.3343,76.7696,283.4054,0,U,60544,999,10004,.2879E-3,.2894E-4,0
HAWK-10B,2024-149CF,2026-06-18T15:22:15.890880,14.96520837,.00069,97.6820,244.8806,88.7984,271.4028,0,U,60545,999,10020,.10747E-3,.1165E-4,0
