FLOCK 4BE-27            
1 60513U 24149AX  26169.49870495  .00007239  00000+0  21925-3 0  9997
2 60513  97.3824 251.3504 0002413 308.9007  51.2020 15.34463889102348
FLOCK 4BE-9             
1 60514U 24149AY  26169.19414574  .00012007  00000+0  29490-3 0  9991
2 60514  97.3795 253.4753 0001390 288.0699  72.0396 15.40819833102475
FLOCK 4BE-6             
1 60516U 24149BA  26169.67867243  .00011437  00000+0  29237-3 0  9996
2 60516  97.3789 253.3206 0002058 285.0789  75.0229 15.39609284102508
FLOCK 4BE-14            
1 60517U 24149BB  26169.53116970  .00012995  00000+0  31675-3 0  9995
2 60517  97.3696 253.3089 0003001 283.5642  76.5270 15.41026820102532
FLOCK 4BE-1             
1 60518U 24149BC  26169.67542580  .00013889  00000+0  32075-3 0  9999
2 60518  97.3781 254.7374 0002888 281.7879  78.3044 15.42640855102602
FLOCK 4BE-28            
1 60519U 24149BD  26169.68741589  .00014116  00000+0  30160-3 0  9998
2 60519  97.3748 255.4781 0002983 274.3800  85.7107 15.44953810102673
IPERDRONE.0             
1 60520U 24149BE  26169.51998728  .00063448  00000+0  59933-3 0  9992
2 60520  97.3775 262.7979 0003714 221.0422 139.0559 15.66818626103121
TRANSPORTER-11 OBJECT BF
1 60521U 24149BF  26169.51811098  .00211259  00000+0  87248-3 0  9992
2 60521  97.3765 265.5609 0006399 232.5601 127.5088 15.85310455103295
CONNECTA IOT-2          
1 60522U 24149BG  26169.69025036  .00003645  00000+0  15347-3 0  9990
2 60522  97.3838 247.8132 0005402 331.6809  28.4134 15.23985376102120
CONNECTA IOT-4          
1 60524U 24149BJ  26169.18060501  .00014567  00000+0  34156-3 0  9996
2 60524  97.3798 253.5627 0004023 280.2720  79.8073 15.42168882102486
ORESAT0.5               
1 60525U 24149BK  26169.41347172  .00015568  00000+0  33048-3 0  9996
2 60525  97.3718 255.4327 0004143 267.4016  92.6759 15.45117432102667
DEIMOS                  
1 60526U 24149BL  26169.51116123  .00014916  00000+0  32604-3 0  9991
2 60526  97.3780 255.6712 0004020 275.0101  85.0688 15.44261676102656
CUAVA-2                 
1 60527U 24149BM  26169.19055007  .00009220  00000+0  26408-3 0  9996
2 60527  97.3725 250.7114 0005175 290.4481  69.6207 15.36135386102320
ERNST                   
1 60528U 24149BN  26169.46999244  .00010223  00000+0  26475-3 0  9996
2 60528  97.3809 253.1993 0004397 292.0152  68.0626 15.39236277102472
TORO                    
1 60530U 24149BQ  26169.17591102  .00001269  00000+0  11694-3 0  9995
2 60530  97.6791 243.8253 0001463  80.7894 279.3493 14.96429459100104
HYPSO-2                 
1 60531U 24149BR  26169.66947253  .00001829  00000+0  15665-3 0  9996
2 60531  97.6807 245.9089 0000253  48.1285 311.9959 14.98793581100271
LEMU NGE                
1 60532U 24149BS  26169.65769572  .00001302  00000+0  12438-3 0  9993
2 60532  97.6844 244.5876 0001975  61.6821 298.4599 14.94958942100178
LEMUR-2-STELLA          
1 60533U 24149BT  26169.53788786  .00008277  00000+0  48796-3 0  9993
2 60533  97.6734 251.9987 0001608  96.2198 263.9215 15.11833501100700
SATELIOT_2              
1 60534U 24149BU  26169.63120521  .00001913  00000+0  17401-3 0  9991
2 60534  97.6834 244.5608 0002153  92.6028 267.5440 14.96368674100186
NIGHTJAR                
1 60535U 24149BV  26169.46045169  .00001832  00000+0  15592-3 0  9996
2 60535  97.6839 246.1501 0001093  79.7407 280.3939 14.99022041143069
LEMUR-2-MARHISYAM       
1 60536U 24149BW  26169.65111743  .00008941  00000+0  53477-3 0  9992
2 60536  97.6878 252.5628 0003241 115.9621 244.1943 15.11284968100702
SATELIOT_4              
1 60537U 24149BX  26169.64173154  .00001142  00000+0  10513-3 0  9996
2 60537  97.6743 244.0980 0003132  56.1568 303.9951 14.96675205100192
PICO-02A021             
1 60538U 24149BY  26169.16489146  .00004779  00000+0  35712-3 0  9992
2 60538  97.6753 247.9873 0004858  25.2654 334.8808 15.03262350 99885
ICEYE-X43               
1 60539U 24149BZ  26169.69679830  .00003192  00000+0  26385-3 0  9996
2 60539  97.6789 246.6404 0008277  80.4801 279.7357 14.99626114100343
HAWK-10A                
1 60540U 24149CA  26169.17257155  .00001469  00000+0  13431-3 0  9996
2 60540  97.6898 245.0669 0004981  75.8442 284.3332 14.96520885100136
UMBRA-09                
1 60541U 24149CB  26169.64942147  .00010947  00000+0  54033-3 0  9995
2 60541  97.6967 256.8799 0000657 257.0365 103.0794 15.18073312100943
QPS-SAR-8 (AMATERU-IV)  
1 60542U 24149CC  26169.45763774  .00003319  00000+0  24372-3 0  9990
2 60542  97.6654 248.5973 0004649 105.8116 254.3623 15.04140943100466
ARCTIC WEATHER SATELLITE
1 60543U 24149CD  26169.63130274  .00000604  00000+0  68532-4 0  9995
2 60543  97.6805 240.0556 0003595 100.2487 259.9137 14.89784407 99513
CAPELLA-15 (ACADIA-5)   
1 60544U 24149CE  26169.46235126  .00002894  00000+0  28790-3 0  9993
2 60544  97.6770 242.3343 0004763  76.7696 283.4054 14.92412089100040
HAWK-10B                
1 60545U 24149CF  26169.64046170  .00001165  00000+0  10747-3 0  9996
2 60545  97.6820 244.8806 0006900  88.7984 271.4028 14.96520837100207
